{
 "generated_at": "2026-07-05T07:57:19Z",
 "sources": [
  {
   "name": "CelesTrak",
   "url": "https://celestrak.org/NORAD/elements/",
   "license": "frei verfügbar; Attribution. Ursprünglich USSPACECOM/Space-Track."
  },
  {
   "name": "GCAT (J. McDowell, planet4589.org)",
   "url": "https://planet4589.org/space/gcat/",
   "license": "CC-BY 4.0"
  }
 ],
 "satellites": [
  {
   "norad": 39766,
   "name": "ALOS-2",
   "intl": "2014-029A",
   "group": "resource",
   "gcat": {
    "class": "C",
    "category": "IMG",
    "owner": "JAXA",
    "state": "J"
   },
   "omm": {
    "OBJECT_NAME": "ALOS-2",
    "OBJECT_ID": "2014-029A",
    "EPOCH": "2026-07-03T18:38:40.142400",
    "MEAN_MOTION": 14.79475407,
    "ECCENTRICITY": 0.00016432,
    "INCLINATION": 97.9231,
    "RA_OF_ASC_NODE": 281.7034,
    "ARG_OF_PERICENTER": 89.0013,
    "MEAN_ANOMALY": 271.1387,
    "EPHEMERIS_TYPE": 0,
    "CLASSIFICATION_TYPE": "U",
    "NORAD_CAT_ID": 39766,
    "ELEMENT_SET_NO": 999,
    "REV_AT_EPOCH": 65403,
    "BSTAR": 0.00020504017,
    "MEAN_MOTION_DOT": 0.0000148,
    "MEAN_MOTION_DDOT": 0
   }
  },
  {
   "norad": 60182,
   "name": "ALOS-4 (DAICHI-4)",
   "intl": "2024-123A",
   "group": "resource",
   "gcat": {
    "class": "C",
    "category": "IMG",
    "owner": "JAXA",
    "state": "J"
   },
   "omm": {
    "OBJECT_NAME": "ALOS-4 (DAICHI-4)",
    "OBJECT_ID": "2024-123A",
    "EPOCH": "2026-07-02T20:23:03.331104",
    "MEAN_MOTION": 14.79475621,
    "ECCENTRICITY": 0.00016106,
    "INCLINATION": 97.922,
    "RA_OF_ASC_NODE": 280.8007,
    "ARG_OF_PERICENTER": 97.4056,
    "MEAN_ANOMALY": 262.7339,
    "EPHEMERIS_TYPE": 0,
    "CLASSIFICATION_TYPE": "U",
    "NORAD_CAT_ID": 60182,
    "ELEMENT_SET_NO": 999,
    "REV_AT_EPOCH": 10819,
    "BSTAR": 0.00022752435,
    "MEAN_MOTION_DOT": 0.00001648,
    "MEAN_MOTION_DDOT": 0
   }
  },
  {
   "norad": 41785,
   "name": "ALSAT-1B",
   "intl": "2016-059C",
   "group": "resource",
   "gcat": {
    "class": "C",
    "category": "IMG",
    "owner": "ASAL",
    "state": "DZ"
   },
   "omm": {
    "OBJECT_NAME": "ALSAT-1B",
    "OBJECT_ID": "2016-059C",
    "EPOCH": "2026-07-04T13:41:54.927168",
    "MEAN_MOTION": 14.72287226,
    "ECCENTRICITY": 0.00095178,
    "INCLINATION": 97.7746,
    "RA_OF_ASC_NODE": 193.5843,
    "ARG_OF_PERICENTER": 161.3515,
    "MEAN_ANOMALY": 198.8043,
    "EPHEMERIS_TYPE": 0,
    "CLASSIFICATION_TYPE": "U",
    "NORAD_CAT_ID": 41785,
    "ELEMENT_SET_NO": 999,
    "REV_AT_EPOCH": 52313,
    "BSTAR": 0.000036976819,
    "MEAN_MOTION_DOT": 0.00000187,
    "MEAN_MOTION_DDOT": 0
   }
  },
  {
   "norad": 27424,
   "name": "AQUA",
   "intl": "2002-022A",
   "group": "resource",
   "gcat": {
    "class": "C",
    "category": "IMG",
    "owner": "GSFC",
    "state": "US"
   },
   "omm": {
    "OBJECT_NAME": "AQUA",
    "OBJECT_ID": "2002-022A",
    "EPOCH": "2026-07-04T15:53:51.531072",
    "MEAN_MOTION": 14.62187266,
    "ECCENTRICITY": 0.00006814,
    "INCLINATION": 98.4287,
    "RA_OF_ASC_NODE": 155.2954,
    "ARG_OF_PERICENTER": 88.0238,
    "MEAN_ANOMALY": 84.8708,
    "EPHEMERIS_TYPE": 0,
    "CLASSIFICATION_TYPE": "U",
    "NORAD_CAT_ID": 27424,
    "ELEMENT_SET_NO": 999,
    "REV_AT_EPOCH": 28582,
    "BSTAR": 0.00024573754,
    "MEAN_MOTION_DOT": 0.00001188,
    "MEAN_MOTION_DDOT": 0
   }
  },
  {
   "norad": 29268,
   "name": "ARIRANG-2 (KOMPSAT-2)",
   "intl": "2006-031A",
   "group": "resource",
   "gcat": {
    "class": "C",
    "category": "IMG",
    "owner": "KARI",
    "state": "KR"
   },
   "omm": {
    "OBJECT_NAME": "ARIRANG-2 (KOMPSAT-2)",
    "OBJECT_ID": "2006-031A",
    "EPOCH": "2026-07-04T15:32:20.157792",
    "MEAN_MOTION": 14.64671073,
    "ECCENTRICITY": 0.00151403,
    "INCLINATION": 97.8308,
    "RA_OF_ASC_NODE": 9.2488,
    "ARG_OF_PERICENTER": 23.5,
    "MEAN_ANOMALY": 49.8393,
    "EPHEMERIS_TYPE": 0,
    "CLASSIFICATION_TYPE": "U",
    "NORAD_CAT_ID": 29268,
    "ELEMENT_SET_NO": 999,
    "REV_AT_EPOCH": 6403,
    "BSTAR": 0.000081035072,
    "MEAN_MOTION_DOT": 0.00000387,
    "MEAN_MOTION_DDOT": 0
   }
  },
  {
   "norad": 38338,
   "name": "ARIRANG-3 (KOMPSAT-3)",
   "intl": "2012-025B",
   "group": "resource",
   "gcat": {
    "class": "C",
    "category": "IMG",
    "owner": "KARI",
    "state": "KR"
   },
   "omm": {
    "OBJECT_NAME": "ARIRANG-3 (KOMPSAT-3)",
    "OBJECT_ID": "2012-025B",
    "EPOCH": "2026-07-04T14:51:45.919008",
    "MEAN_MOTION": 14.62222918,
    "ECCENTRICITY": 0.0006704,
    "INCLINATION": 98.1179,
    "RA_OF_ASC_NODE": 142.7792,
    "ARG_OF_PERICENTER": 65.9508,
    "MEAN_ANOMALY": 294.2395,
    "EPHEMERIS_TYPE": 0,
    "CLASSIFICATION_TYPE": "U",
    "NORAD_CAT_ID": 38338,
    "ELEMENT_SET_NO": 999,
    "REV_AT_EPOCH": 75389,
    "BSTAR": 0.00013520008,
    "MEAN_MOTION_DOT": 0.00000635,
    "MEAN_MOTION_DDOT": 0
   }
  },
  {
   "norad": 39227,
   "name": "ARIRANG-5 (KOMPSAT-5)",
   "intl": "2013-042A",
   "group": "resource",
   "gcat": {
    "class": "C",
    "category": "IMG-R",
    "owner": "KARI",
    "state": "KR"
   },
   "omm": {
    "OBJECT_NAME": "ARIRANG-5 (KOMPSAT-5)",
    "OBJECT_ID": "2013-042A",
    "EPOCH": "2026-07-04T14:11:27.136320",
    "MEAN_MOTION": 15.04550096,
    "ECCENTRICITY": 0.00052747,
    "INCLINATION": 97.6207,
    "RA_OF_ASC_NODE": 12.0458,
    "ARG_OF_PERICENTER": 80.9007,
    "MEAN_ANOMALY": 279.2816,
    "EPHEMERIS_TYPE": 0,
    "CLASSIFICATION_TYPE": "U",
    "NORAD_CAT_ID": 39227,
    "ELEMENT_SET_NO": 999,
    "REV_AT_EPOCH": 70647,
    "BSTAR": 0.0001340423,
    "MEAN_MOTION_DOT": 0.00001818,
    "MEAN_MOTION_DDOT": 0
   }
  },
  {
   "norad": 47719,
   "name": "ARKTIKA-M 1",
   "intl": "2021-016A",
   "group": "weather",
   "gcat": {
    "class": "C",
    "category": "MET",
    "owner": "ROSK",
    "state": "RU"
   },
   "omm": {
    "OBJECT_NAME": "ARKTIKA-M 1",
    "OBJECT_ID": "2021-016A",
    "EPOCH": "2026-06-29T22:50:46.732128",
    "MEAN_MOTION": 2.00617895,
    "ECCENTRICITY": 0.72928178,
    "INCLINATION": 63.252,
    "RA_OF_ASC_NODE": 55.7907,
    "ARG_OF_PERICENTER": 269.991,
    "MEAN_ANOMALY": 14.5481,
    "EPHEMERIS_TYPE": 0,
    "CLASSIFICATION_TYPE": "U",
    "NORAD_CAT_ID": 47719,
    "ELEMENT_SET_NO": 999,
    "REV_AT_EPOCH": 3904,
    "BSTAR": 0,
    "MEAN_MOTION_DOT": -0.00000281,
    "MEAN_MOTION_DDOT": 0
   }
  },
  {
   "norad": 58584,
   "name": "ARKTIKA-M 2",
   "intl": "2023-198A",
   "group": "weather",
   "gcat": {
    "class": "C",
    "category": "MET",
    "owner": "ROSK",
    "state": "RU"
   },
   "omm": {
    "OBJECT_NAME": "ARKTIKA-M 2",
    "OBJECT_ID": "2023-198A",
    "EPOCH": "2026-06-29T17:20:14.637696",
    "MEAN_MOTION": 2.00610643,
    "ECCENTRICITY": 0.69058771,
    "INCLINATION": 63.2199,
    "RA_OF_ASC_NODE": 152.9641,
    "ARG_OF_PERICENTER": 267.3845,
    "MEAN_ANOMALY": 18.7575,
    "EPHEMERIS_TYPE": 0,
    "CLASSIFICATION_TYPE": "U",
    "NORAD_CAT_ID": 58584,
    "ELEMENT_SET_NO": 999,
    "REV_AT_EPOCH": 1857,
    "BSTAR": 0,
    "MEAN_MOTION_DOT": 0.00000148,
    "MEAN_MOTION_DDOT": 0
   }
  },
  {
   "norad": 40298,
   "name": "ASNARO",
   "intl": "2014-070A",
   "group": "resource",
   "gcat": {
    "class": null,
    "category": "IMG",
    "owner": "JSS",
    "state": "J"
   },
   "omm": {
    "OBJECT_NAME": "ASNARO",
    "OBJECT_ID": "2014-070A",
    "EPOCH": "2026-07-04T06:43:57.447264",
    "MEAN_MOTION": 15.19693567,
    "ECCENTRICITY": 0.00066488,
    "INCLINATION": 97.3446,
    "RA_OF_ASC_NODE": 260.9344,
    "ARG_OF_PERICENTER": 117.4549,
    "MEAN_ANOMALY": 242.7363,
    "EPHEMERIS_TYPE": 0,
    "CLASSIFICATION_TYPE": "U",
    "NORAD_CAT_ID": 40298,
    "ELEMENT_SET_NO": 999,
    "REV_AT_EPOCH": 64660,
    "BSTAR": 0.00040830903,
    "MEAN_MOTION_DOT": 0.00008658,
    "MEAN_MOTION_DDOT": 0
   }
  }
 ]
}
